# Manually created TLE-file containing TLE-elements for the 4 satellites
# observed within the session 15AUG24X/XX (time-tag 15236) by the australian network.
# Based on TLEs from www.space-track.org
# Satellite-Assignment {norad_number, vgosDB-GPS-name} :
# {{28474,"PG02"}, {38833,"PG24"}, {29601,"PG12"}, {36585,"PG25"}}
1 28474U 04045A   15236.44092911 -.00000019  00000-0  00000+0 0  9995
2 28474 053.9356 124.9628 0149010 232.2839 254.3855 02.00570089 79205
1 29601U 06052A   15236.23530037 -.00000055  00000-0  00000+0 0  9991
2 29601 056.7274 009.6087 0053934 035.1509 010.8001 02.00570058 64230
1 36585U 10022A   15236.89039480 -.00000059 +00000-0 +00000-0 0  9995
2 36585 056.0650 006.8528 0044894 041.1712 086.4188 02.00568197038380
1 38833U 12053A   15236.58329367 -.00000029 +00000-0 +00000-0 0  9998
2 38833 054.5776 305.8356 0032630 014.5589 345.6017 02.00565048020331
